<?xml version="1.0" encoding="ISO-8859-1"?><cdm xmlns:ndm="urn:ccsds:recommendation:navigation:schema:ndmxml" xmlns:xsi="http://www.w3.org/2001/XMLSchema-instance" id="CCSDS_CDM_VERS" version="1.0" xsi:noNamespaceSchemaLocation="http://sanaregistry.org/r/ndmxml/ndmxml-1.0-master.xsd"><header><COMMENT>Secondary = CDM: CSpOC.14_329014440323 (TCA: 02/12/2023 18:37:14.954Z)</COMMENT><COMMENT>CREATION_ORIGIN :CSpOC.14_329014440323.231202_1837.11092.SAT_1_2024_001A.N00001.N20923.4132.371</COMMENT><COMMENT>SECONDARY_SOURCE :JSpOC</COMMENT><COMMENT>EVENT_ID:CA-24001A-90094A-202312021836</COMMENT><CREATION_DATE>2023-11-25T02:43:11.158</CREATION_DATE><ORIGINATOR>CAESAR</ORIGINATOR><MESSAGE_FOR>SAT_1</MESSAGE_FOR><MESSAGE_ID>TRJ18789801</MESSAGE_ID></header><body><relativeMetadataData><TCA>2023-12-02T18:37:14.884</TCA><MISS_DISTANCE units="m">4135.075723837003</MISS_DISTANCE><RELATIVE_SPEED units="m/s">725.2697607059698</RELATIVE_SPEED><relativeStateVector><RELATIVE_POSITION_R units="m">371.0423377853468</RELATIVE_POSITION_R><RELATIVE_POSITION_T units="m">4089.397625065934</RELATIVE_POSITION_T><RELATIVE_POSITION_N units="m">487.8584728607257</RELATIVE_POSITION_N><RELATIVE_VELOCITY_R units="m/s">-0.5096874176026296</RELATIVE_VELOCITY_R><RELATIVE_VELOCITY_T units="m/s">-85.88258201395384</RELATIVE_VELOCITY_T><RELATIVE_VELOCITY_N units="m/s">720.166750218203</RELATIVE_VELOCITY_N></relativeStateVector><START_SCREEN_PERIOD>2023-11-25T00:09:00.000</START_SCREEN_PERIOD><STOP_SCREEN_PERIOD>2023-12-09T00:09:00.000</STOP_SCREEN_PERIOD><SCREEN_VOLUME_FRAME>RTN</SCREEN_VOLUME_FRAME><SCREEN_VOLUME_SHAPE>BOX</SCREEN_VOLUME_SHAPE><SCREEN_VOLUME_X units="m">24000.0</SCREEN_VOLUME_X><SCREEN_VOLUME_Y units="m">436800.0</SCREEN_VOLUME_Y><SCREEN_VOLUME_Z units="m">36000.0</SCREEN_VOLUME_Z><SCREEN_ENTRY_TIME>2023-12-02T18:36:14.954</SCREEN_ENTRY_TIME><SCREEN_EXIT_TIME>2023-12-02T18:38:14.953</SCREEN_EXIT_TIME></relativeMetadataData><segment><metadata><OBJECT>OBJECT1</OBJECT><OBJECT_DESIGNATOR>00001</OBJECT_DESIGNATOR><CATALOG_NAME>SATCAT</CATALOG_NAME><OBJECT_NAME>SAT_1</OBJECT_NAME><INTERNATIONAL_DESIGNATOR>2024-001A</INTERNATIONAL_DESIGNATOR><OBJECT_TYPE>UNKNOWN</OBJECT_TYPE><EPHEMERIS_NAME>2024-001A_SAT_1_OPER_20231124T150500_S20231124T150000_E20231227T120000.jspoc</EPHEMERIS_NAME><COVARIANCE_METHOD>CALCULATED</COVARIANCE_METHOD><MANEUVERABLE>YES</MANEUVERABLE><REF_FRAME>ITRF</REF_FRAME></metadata><data><odParameters/><additionalParameters><COMMENT>JAC_LAST_ACC_OB = N/A</COMMENT><AREA_PC units="m**2">1231.6299839133426</AREA_PC></additionalParameters><stateVector><X units="km">41841.22154829608</X><Y units="km">-5327.60657427841</Y><Z units="km">-18.5142494384733</Z><X_DOT units="km/s">0.0017039958030497927</X_DOT><Y_DOT units="km/s">-0.0023182870455884766</Y_DOT><Z_DOT units="km/s">0.003993018640701274</Z_DOT></stateVector><covarianceMatrix><CR_R units="m**2">1317.6899999999982</CR_R><CT_R units="m**2">-1.6629475574347907E-12</CT_R><CT_T units="m**2">227528.4813783658</CT_T><CN_R units="m**2">1.7763568394002505E-14</CN_R><CN_T units="m**2">0.0</CN_T><CN_N units="m**2">45330.00197338459</CN_N><CRDOT_R units="m**2/s">-1.061074784893673E-15</CRDOT_R><CRDOT_T units="m**2/s">-16.580406819489973</CRDOT_T><CRDOT_N units="m**2/s">3.469446951953614E-18</CRDOT_N><CRDOT_RDOT units="m**2/s**2">0.0012082438586782087</CRDOT_RDOT><CTDOT_R units="m**2/s">0.09602242378457247</CTDOT_R><CTDOT_T units="m**2/s">8.429510028372533E-16</CTDOT_T><CTDOT_N units="m**2/s">-1.3552527156068805E-19</CTDOT_N><CTDOT_RDOT units="m**2/s**2">-8.406492778121504E-21</CTDOT_RDOT><CTDOT_TDOT units="m**2/s**2">6.997325523806134E-6</CTDOT_TDOT><CNDOT_R units="m**2/s">5.2289979944893065E-19</CNDOT_R><CNDOT_T units="m**2/s">-1.6540386149484912E-18</CNDOT_T><CNDOT_N units="m**2/s">6.840759137354361E-22</CNDOT_N><CNDOT_RDOT units="m**2/s**2">1.0095446466068822E-22</CNDOT_RDOT><CNDOT_TDOT units="m**2/s**2">3.191525923853509E-23</CNDOT_TDOT><CNDOT_NDOT units="m**2/s**2">2.7220379417137542E-27</CNDOT_NDOT><CDRG_R units="m**3/kg">0.0</CDRG_R><CDRG_T units="m**3/kg">0.0</CDRG_T><CDRG_N units="m**3/kg">0.0</CDRG_N><CDRG_RDOT units="m**3/(kg*s)">0.0</CDRG_RDOT><CDRG_TDOT units="m**3/(kg*s)">0.0</CDRG_TDOT><CDRG_NDOT units="m**3/(kg*s)">0.0</CDRG_NDOT><CDRG_DRG units="m**4/kg**2">0.0</CDRG_DRG><CSRP_R units="m**3/kg">0.0</CSRP_R><CSRP_T units="m**3/kg">0.0</CSRP_T><CSRP_N units="m**3/kg">0.0</CSRP_N><CSRP_RDOT units="m**3/(kg*s)">0.0</CSRP_RDOT><CSRP_TDOT units="m**3/(kg*s)">0.0</CSRP_TDOT><CSRP_NDOT units="m**3/(kg*s)">0.0</CSRP_NDOT><CSRP_DRG units="m**4/kg**2">0.0</CSRP_DRG><CSRP_SRP units="m**4/kg**2">0.0</CSRP_SRP></covarianceMatrix></data></segment><segment><metadata><OBJECT>OBJECT2</OBJECT><OBJECT_DESIGNATOR>20923</OBJECT_DESIGNATOR><CATALOG_NAME>SATCAT</CATALOG_NAME><OBJECT_NAME>GORIZONT 21</OBJECT_NAME><INTERNATIONAL_DESIGNATOR>1990-094A</INTERNATIONAL_DESIGNATOR><OBJECT_TYPE>UNKNOWN</OBJECT_TYPE><EPHEMERIS_NAME>NONE</EPHEMERIS_NAME><COVARIANCE_METHOD>CALCULATED</COVARIANCE_METHOD><MANEUVERABLE>NO</MANEUVERABLE><REF_FRAME>ITRF</REF_FRAME><GRAVITY_MODEL>EIGEN GL04S: 8D 8O</GRAVITY_MODEL><ATMOSPHERIC_MODEL>NONE</ATMOSPHERIC_MODEL><N_BODY_PERTURBATIONS>MOON,SUN</N_BODY_PERTURBATIONS><SOLAR_RAD_PRESSURE>YES</SOLAR_RAD_PRESSURE><EARTH_TIDES>NO</EARTH_TIDES></metadata><data><odParameters><TIME_LASTOB_START>2023-11-24T01:45:22.811</TIME_LASTOB_START><TIME_LASTOB_END>2023-11-25T01:45:22.811</TIME_LASTOB_END><RECOMMENDED_OD_SPAN units="d">27.93</RECOMMENDED_OD_SPAN><ACTUAL_OD_SPAN units="d">27.93</ACTUAL_OD_SPAN><OBS_AVAILABLE>377</OBS_AVAILABLE><OBS_USED>377</OBS_USED><RESIDUALS_ACCEPTED units="%">98.9</RESIDUALS_ACCEPTED><WEIGHTED_RMS>1.022</WEIGHTED_RMS></odParameters><additionalParameters><COMMENT>JAC_LAST_ACC_OB = Greater Than (&gt;) 48 Hours</COMMENT><AREA_PC units="m**2">101.93376457451753</AREA_PC><CR_AREA_OVER_MASS units="m**2/kg">0.00711812834</CR_AREA_OVER_MASS></additionalParameters><stateVector><X units="km">41842.10628219441</X><Y units="km">-5323.59745521714</Y><Z units="km">-18.021236737177176</Z><X_DOT units="km/s">-0.00945397326084009</X_DOT><Y_DOT units="km/s">-0.08841750432393972</Y_DOT><Z_DOT units="km/s">0.7240478044863841</Z_DOT></stateVector><covarianceMatrix><CR_R units="m**2">12963.689594365012</CR_R><CT_R units="m**2">-8332.526458339982</CT_R><CT_T units="m**2">1638364.385771594</CT_T><CN_R units="m**2">-132.78201738979087</CN_R><CN_T units="m**2">-1731.0140326491035</CN_T><CN_N units="m**2">780.5044140937113</CN_N><CRDOT_R units="m**2/s">0.4358131967447035</CRDOT_R><CRDOT_T units="m**2/s">-119.36892056634467</CRDOT_T><CRDOT_N units="m**2/s">0.12978952814522415</CRDOT_N><CRDOT_RDOT units="m**2/s**2">0.008701944835894466</CRDOT_RDOT><CTDOT_R units="m**2/s">-0.9436259931127744</CTDOT_R><CTDOT_T units="m**2/s">-0.003439528933137556</CTDOT_T><CTDOT_N units="m**2/s">0.010302324175232858</CTDOT_N><CTDOT_RDOT units="m**2/s**2">1.2789070357651036E-5</CTDOT_RDOT><CTDOT_TDOT units="m**2/s**2">6.891707742835952E-5</CTDOT_TDOT><CNDOT_R units="m**2/s">-0.006352699334641599</CNDOT_R><CNDOT_T units="m**2/s">-0.05407946699532858</CNDOT_T><CNDOT_N units="m**2/s">0.049719480424745666</CNDOT_N><CNDOT_RDOT units="m**2/s**2">4.100557134890165E-6</CNDOT_RDOT><CNDOT_TDOT units="m**2/s**2">4.839199131083671E-7</CNDOT_TDOT><CNDOT_NDOT units="m**2/s**2">6.970639355603616E-5</CNDOT_NDOT><CDRG_R units="m**3/kg">0.0</CDRG_R><CDRG_T units="m**3/kg">0.0</CDRG_T><CDRG_N units="m**3/kg">0.0</CDRG_N><CDRG_RDOT units="m**3/(kg*s)">0.0</CDRG_RDOT><CDRG_TDOT units="m**3/(kg*s)">0.0</CDRG_TDOT><CDRG_NDOT units="m**3/(kg*s)">0.0</CDRG_NDOT><CDRG_DRG units="m**4/kg**2">0.0</CDRG_DRG><CSRP_R units="m**3/kg">0.0</CSRP_R><CSRP_T units="m**3/kg">0.0</CSRP_T><CSRP_N units="m**3/kg">0.0</CSRP_N><CSRP_RDOT units="m**3/(kg*s)">0.0</CSRP_RDOT><CSRP_TDOT units="m**3/(kg*s)">0.0</CSRP_TDOT><CSRP_NDOT units="m**3/(kg*s)">0.0</CSRP_NDOT><CSRP_DRG units="m**4/kg**2">0.0</CSRP_DRG><CSRP_SRP units="m**4/kg**2">0.0</CSRP_SRP></covarianceMatrix></data></segment></body></cdm>